INTELSAT 10 (IS-10)     
1 26766U 01019A   26057.61522514 -.00000237  00000+0  00000+0 0  9995
2 26766   8.8115  60.3804 0006073 257.2496 229.1301  0.99043511 44484
INTELSAT 902 (IS-902)   
1 26900U 01039A   26057.94142465 -.00000297  00000+0  00000+0 0  9992
2 26900   5.8387  73.1320 0004599 269.2942 103.1573  1.00272327 89592
INTELSAT 904 (IS-904)   
1 27380U 02007A   26057.87357110 -.00000239  00000+0  00000+0 0  9994
2 27380   6.6444  70.5073 0005769 301.8589  67.3209  1.00271028 50664
DIRECTV 5 (TEMPO 1)     
1 27426U 02023A   26058.14324822 -.00000071  00000+0  00000+0 0  9992
2 27426   4.5964  76.6868 0003569 260.9989 120.7428  1.00271385 87026
INTELSAT 905 (IS-905)   
1 27438U 02027A   26057.06815963  .00000083  00000+0  00000+0 0  9992
2 27438   6.4740  71.1375 0003033 266.5056  65.6055  1.00272444 50242
GALAXY 3C (G-3C)        
1 27445U 02030A   26058.24137087 -.00000167  00000+0  00000+0 0  9993
2 27445   3.4511  79.5292 0000723  43.9672  25.6214  1.00271147 45399
INTELSAT 906 (IS-906)   
1 27513U 02041A   26058.17765505 -.00000001  00000+0  00000+0 0  9992
2 27513   5.5229  74.2805 0003317 250.7730 320.0465  1.00271908 85929
GALAXY 13 (HORIZONS-1)  
1 27954U 03044A   26058.25070058  .00000118  00000+0  00000+0 0  9994
2 27954   1.1337  85.3922 0002179 252.7036 119.2179  1.00270264 45479
INTELSAT 10-02          
1 28358U 04022A   26058.09358800 -.00000025  00000+0  00000+0 0  9994
2 28358   0.0126 115.0951 0001091 237.8300 196.6891  1.00270249 79453
DIRECTV 8               
1 28659U 05019A   26058.18517059  .00000000  00000+0  00000+0 0  9990
2 28659   0.0263 133.7087 0003254 211.9396 118.9865  1.00270159 75978
GALAXY 28 (G-28)        
1 28702U 05022A   26058.22490446 -.00000215  00000+0  00000+0 0  9997
2 28702   3.0148  80.3241 0002481 269.9299 220.6593  1.00270666 50871
GALAXY 16 (G-16)        
1 29236U 06023A   26058.17405730 -.00000141  00000+0  00000+0 0  9996
2 29236   0.0444 228.4130 0002285 116.2877 135.9505  1.00269989 71870
DIRECTV 9S              
1 29494U 06043A   26058.07374125 -.00000127  00000+0  00000+0 0  9990
2 29494   2.1361  82.2711 0003135 255.9114 104.0524  1.00271142 50271
GALAXY 17 (G-17)        
1 31307U 07016B   26058.16850512 -.00000221  00000+0  00000+0 0  9991
2 31307   2.6928  81.3094 0003313 250.9494 160.3912  1.00270998 68700
DIRECTV 10              
1 31862U 07032A   26058.11092142 -.00000012  00000+0  00000+0 0  9995
2 31862   0.1173 102.4848 0006392 267.8410 273.0901  0.98335537 44484
INTELSAT 11 (IS-11)     
1 32253U 07044B   26058.20880994  .00000039  00000+0  00000+0 0  9991
2 32253   3.2784  80.0259 0005718 201.7299 199.8397  0.99047168 67368
HORIZONS-2              
1 32388U 07063B   26058.16294763 -.00000268  00000+0  00000+0 0  9994
2 32388   2.3179  82.0208 0002959 243.6289 176.1885  1.00272890 66712
DIRECTV 11              
1 32729U 08013A   26058.17405730 -.00000140  00000+0  00000+0 0  9997
2 32729   0.0009  55.0777 0000260 274.7837 150.5971  1.00271345 44493
GALAXY 18 (G-18)        
1 32951U 08024A   26058.19072531  .00000011  00000+0  00000+0 0  9993
2 32951   0.0128 107.1457 0003032 238.1605 117.3531  1.00271258 44758
INTELSAT 25 (IS-25)     
1 33153U 08034A   26058.22753058 -.00000239  00000+0  00000+0 0  9996
2 33153   2.4236  81.6859 0004037 233.7836 251.9920  1.00271240 64596
GALAXY 19 (G-19)        
1 33376U 08045A   26058.20999679 -.00000153  00000+0  00000+0 0  9999
2 33376   0.0505 267.6098 0003039  76.5251 151.4814  1.00270645 63809
FM-5                    
1 35493U 09034A   26057.80158052 -.00000213  00000+0  00000+0 0  9994
2 35493   0.0350 268.0634 0000920 321.3933 129.5705  1.00271952 45531
INTELSAT 14 (IS-14)     
1 36097U 09064A   26058.08483463 -.00000287  00000+0  00000+0 0  9997
2 36097   0.0186 112.0239 0002513 231.2614 159.1457  1.00272567 59501
INTELSAT 15 (IS-15)     
1 36106U 09067A   26058.11066142 -.00000199  00000+0  00000+0 0  9998
2 36106   0.0155 110.2367 0002356 226.5969 305.0787  1.00271895 40124
DIRECTV 12              
1 36131U 09075A   26058.20648808  .00000000  00000+0  00000+0 0  9990
2 36131   0.0109 106.3883 0000304 254.6468 127.6399  1.00270143 45450
INTELSAT 16 (IS-16)     
1 36397U 10006A   26058.16294763 -.00000259  00000+0  00000+0 0  9999
2 36397   0.0137  93.5982 0002121 241.4978 164.3405  1.00271395 58552
XM-5                    
1 37185U 10053A   26058.18517059 -.00000037  00000+0  00000+0 0  9999
2 37185   0.0648 276.3795 0003208 253.4387 298.6378  1.00272647 56382
INTELSAT 17 (IS-17)     
1 37238U 10065B   26058.17961434 -.00000016  00000+0  00000+0 0  9997
2 37238   0.0162 180.9351 0002421 160.1447 306.5777  1.00271126 52140
INTELSAT 28 (IS-28)     
1 37392U 11016A   26058.22753058 -.00000240  00000+0  00000+0 0  9991
2 37392   1.5215  84.0535 0004564 248.7479 234.4481  1.00271121 52182
INTELSAT 18 (IS-18)     
1 37834U 11056A   26058.20072772  .00000038  00000+0  00000+0 0  9995
2 37834   0.0381 269.0865 0001927  61.4942  78.6842  1.00272188 52708
INTELSAT 22 (IS-22)     
1 38098U 12011A   26058.10806141 -.00000072  00000+0  00000+0 0  9993
2 38098   0.0204 106.4869 0001630 245.8570 275.5875  1.00271325  6085
INTELSAT 19 (IS-19)     
1 38356U 12030A   26058.20045008 -.00000071  00000+0  00000+0 0  9998
2 38356   0.0181 128.4264 0003039 215.0076  51.7413  1.00271176 49346
INTELSAT 20 (IS-20)     
1 38740U 12043A   26058.21919778 -.00000039  00000+0  00000+0 0  9998
2 38740   0.0192 129.9297 0002395  34.2105 140.2995  1.00272836 49641
INTELSAT 21 (IS-21)     
1 38749U 12045A   26058.08232129 -.00000299  00000+0  00000+0 0  9990
2 38749   0.0480 274.9604 0001825  54.7639 158.8150  1.00272257 49420
INTELSAT 23 (IS-23)     
1 38867U 12057A   26058.08327462 -.00000299  00000+0  00000+0 0  9999
2 38867   0.0562 266.0892 0001359  67.9636 159.8212  1.00269638 48853
FM-6                    
1 39360U 13058A   26058.30028300 -.00000032  00000+0  00000+0 0  9999
2 39360   0.0231 122.9150 0002903  63.0480 323.0743  1.00276684 44974
INTELSAT 30 (IS-30)     
1 40271U 14062A   26058.17405730 -.00000165  00000+0  00000+0 0  9996
2 40271   0.0162  77.1092 0001098  33.7444  13.7457  1.00271215  5690
DIRECTV 14              
1 40333U 14078B   26058.14541490  .00000000  00000+0  00000+0 0  9990
2 40333   0.0273 119.9268 0000314  60.1747 290.0060  1.00268764 40944
DIRECTV 15              
1 40663U 15026A   26058.20648794 -.00000117  00000+0  00000+0 0  9992
2 40663   0.0214  99.2331 0000658 136.2125 253.0143  1.00271519 39369
SKY MEXICO-1            
1 40664U 15026B   26058.22058512  .00000000  00000+0  00000+0 0  9998
2 40664   0.0213 138.0424 0002176 212.1754 167.4914  1.00268694 39356
INTELSAT 34 (IS-34)     
1 40874U 15039A   26058.08275462  .00000000  00000+0  00000+0 0  9994
2 40874   0.0162 136.3422 0000141 255.6407  99.2454  1.00267607 38520
INTELSAT 31 (IS-31)     
1 41581U 16035A   26058.17405730 -.00000165  00000+0  00000+0 0  9993
2 41581   0.0354 248.3747 0002037 347.0309 249.1784  1.00270347 35586
INTELSAT 36 (IS-36)     
1 41747U 16053A   26058.21919778 -.00000038  00000+0  00000+0 0  9993
2 41747   0.0146  80.8210 0001305 231.7477 351.8798  1.00268938 34853
INTELSAT 32E (IS-32E)   
1 41945U 17007B   26058.08518130 -.00000283  00000+0  00000+0 0  9997
2 41945   0.0122 109.6367 0000159 202.0076 192.7318  1.00263579 33127
INTELSAT 35E (IS-35E)   
1 42818U 17041A   26058.22753058 -.00000253  00000+0  00000+0 0  9998
2 42818   0.0260 241.7077 0002211  89.9607 232.7815  1.00270742 31719
INTELSAT 37E (IS-37E)   
1 42950U 17059A   26058.20677163 -.00000155  00000+0  00000+0 0  9995
2 42950   0.0169 131.9372 0002330 195.9400 245.5812  1.00271500 30961
AZERSPACE 2 (IS-38)     
1 43632U 18074A   26058.16850153  .00000000  00000+0  00000+0 0  9996
2 43632   0.0244 133.5442 0001458 201.8546 287.3870  1.00269352 27345
HORIZONS-3E             
1 43633U 18074B   26058.20045008 -.00000045  00000+0  00000+0 0  9997
2 43633   0.0160 249.9974 0000754  60.7849  87.3720  1.00271238 27237
AT&T T-16               
1 44333U 19034A   26058.07382792 -.00000129  00000+0  00000+0 0  9994
2 44333   0.0252  96.0936 0000892  78.4673 268.0472  1.00272008 24527
INTELSAT 39 (IS-39)     
1 44476U 19049B   26058.17961434  .00000000  00000+0  00000+0 0  9992
2 44476   0.0252 133.0496 0000702  45.8235 104.7528  1.00268103 24024
GALAXY 30 (G-30)        
1 46114U 20056C   26058.19072531  .00000000  00000+0  00000+0 0  9996
2 46114   0.0258 131.1716 0002091 222.2931 107.2170  1.00269675 20192
GALAXY 33 (G-33)        
1 54026U 22128A   26058.20866506  .00000065  00000+0  00000+0 0  9995
2 54026   0.0142  91.0507 0002003 236.0252 132.0601  1.00269362 12648
GALAXY 34 (G-34)        
1 54027U 22128B   26058.20723352  .00000045  00000+0  00000+0 0  9995
2 54027   0.0182 109.9396 0001400 229.1453 123.5428  1.00271254 12818
GALAXY 31 (G-31)        
1 54243U 22153A   26058.19072531 -.00000001  00000+0  00000+0 0  9990
2 54243   0.0154 126.1455 0001547 211.0753 127.4410  1.00271037  6039
GALAXY 32 (G-32)        
1 54244U 22153B   26058.22614260 -.00000188  00000+0  00000+0 0  9992
2 54244   0.0161  97.3561 0002981 247.8047 162.2874  1.00271449 12047
GALAXY 35 (G-35)        
1 54741U 22170A   26058.17405730 -.00000176  00000+0  00000+0 0  9994
2 54741   0.0116 130.3303 0002129 201.0275 155.1978  1.00271565 11796
GALAXY 36 (G-36)        
1 54742U 22170B   26057.64072256 -.00000197  00000+0  00000+0 0  9992
2 54742   0.0147 180.8240 0001741 206.5481 270.7524  1.00270929 11669
GALAXY 37 (G-37)        
1 57493U 23112A   26058.19072531  .00000000  00000+0  00000+0 0  9994
2 57493   0.0216 133.0769 0002112 204.7938 120.8258  1.00269623  9449
